{
  "type": "FeatureCollection",
  "features": [
    {
      "type": "Feature",
      "properties": {
        "norad_id": 60182,
        "name": "ALOS-4 (DAICHI-4)",
        "group": "resource",
        "lat": -54.8530892209574,
        "lon": -96.95468712697523,
        "alt_km": 638.7332174456105,
        "timestamp": "2025-12-25T19:00:39.006140+00:00",
        "meta_object_name": "ALOS-4 (DAICHI-4)",
        "meta_object_id": "2024-123A",
        "meta_epoch": "2025-12-25T06:35:13.242048",
        "meta_mean_motion": 14.79469578,
        "meta_eccentricity": 0.00013746,
        "meta_inclination": 97.9222,
        "meta_ra_of_asc_node": 93.9428,
        "meta_arg_of_pericenter": 101.0018,
        "meta_mean_anomaly": 259.1348,
        "meta_ephemeris_type": 0,
        "meta_classification_type": "U",
        "meta_norad_cat_id": 60182,
        "meta_element_set_no": 999,
        "meta_rev_at_epoch": 8016,
        "meta_bstar": 0.00017487869,
        "meta_mean_motion_dot": 1.255e-05,
        "meta_mean_motion_ddot": 0,
        "tle_line1": "1 60182U 24123A   25359.27445882  .00001255  00000+0  17488-3 0  9996",
        "tle_line2": "2 60182  97.9222  93.9428 0001374 101.0018 259.1348 14.79469578 80168"
      },
      "geometry": {
        "type": "Point",
        "coordinates": [
          -96.95468712697523,
          -54.8530892209574
        ]
      }
    },
    {
      "type": "Feature",
      "properties": {
        "norad_id": 60452,
        "name": "LEGION 3",
        "group": "resource",
        "lat": -41.09504910891504,
        "lon": 179.3670488890494,
        "alt_km": 511.82535785934306,
        "timestamp": "2025-12-25T19:00:39.006150+00:00",
        "meta_object_name": "LEGION 3",
        "meta_object_id": "2024-146A",
        "meta_epoch": "2025-12-25T01:54:49.497120",
        "meta_mean_motion": 15.15883235,
        "meta_eccentricity": 0.0015746,
        "meta_inclination": 45.0002,
        "meta_ra_of_asc_node": 243.9747,
        "meta_arg_of_pericenter": 264.4284,
        "meta_mean_anomaly": 95.4798,
        "meta_ephemeris_type": 0,
        "meta_classification_type": "U",
        "meta_norad_cat_id": 60452,
        "meta_element_set_no": 999,
        "meta_rev_at_epoch": 7560,
        "meta_bstar": 0.00029588328,
        "meta_mean_motion_dot": 5.515e-05,
        "meta_mean_motion_ddot": 0,
        "tle_line1": "1 60452U 24146A   25359.07973955  .00005515  00000+0  29588-3 0  9993",
        "tle_line2": "2 60452  45.0002 243.9747 0015746 264.4284  95.4798 15.15883235 75600"
      },
      "geometry": {
        "type": "Point",
        "coordinates": [
          179.3670488890494,
          -41.09504910891504
        ]
      }
    },
    {
      "type": "Feature",
      "properties": {
        "norad_id": 60453,
        "name": "LEGION 4",
        "group": "resource",
        "lat": -41.2984025169055,
        "lon": -89.4432378637508,
        "alt_km": 521.8655591416082,
        "timestamp": "2025-12-25T19:00:39.006161+00:00",
        "meta_object_name": "LEGION 4",
        "meta_object_id": "2024-146B",
        "meta_epoch": "2025-12-25T06:39:41.252256",
        "meta_mean_motion": 15.15957315,
        "meta_eccentricity": 0.00080906,
        "meta_inclination": 45.0397,
        "meta_ra_of_asc_node": 334.7014,
        "meta_arg_of_pericenter": 20.948,
        "meta_mean_anomaly": 339.1729,
        "meta_ephemeris_type": 0,
        "meta_classification_type": "U",
        "meta_norad_cat_id": 60453,
        "meta_element_set_no": 999,
        "meta_rev_at_epoch": 7448,
        "meta_bstar": 0.00033889002,
        "meta_mean_motion_dot": 6.356e-05,
        "meta_mean_motion_ddot": 0,
        "tle_line1": "1 60453U 24146B   25359.27756079  .00006356  00000+0  33889-3 0  9995",
        "tle_line2": "2 60453  45.0397 334.7014 0008090  20.9480 339.1729 15.15957315 74489"
      },
      "geometry": {
        "type": "Point",
        "coordinates": [
          -89.4432378637508,
          -41.2984025169055
        ]
      }
    },
    {
      "type": "Feature",
      "properties": {
        "norad_id": 60989,
        "name": "SENTINEL-2C",
        "group": "resource",
        "lat": -56.31264459734235,
        "lon": -120.9836434283499,
        "alt_km": 796.7482155561274,
        "timestamp": "2025-12-25T19:00:39.006171+00:00",
        "meta_object_name": "SENTINEL-2C",
        "meta_object_id": "2024-157A",
        "meta_epoch": "2025-12-25T04:28:44.329152",
        "meta_mean_motion": 14.30817321,
        "meta_eccentricity": 0.00013885,
        "meta_inclination": 98.5666,
        "meta_ra_of_asc_node": 71.489,
        "meta_arg_of_pericenter": 103.3683,
        "meta_mean_anomaly": 256.7655,
        "meta_ephemeris_type": 0,
        "meta_classification_type": "U",
        "meta_norad_cat_id": 60989,
        "meta_element_set_no": 999,
        "meta_rev_at_epoch": 6810,
        "meta_bstar": 7.543274e-05,
        "meta_mean_motion_dot": 1.54e-06,
        "meta_mean_motion_ddot": 0,
        "tle_line1": "1 60989U 24157A   25359.18662418  .00000154  00000+0  75433-4 0  9996",
        "tle_line2": "2 60989  98.5666  71.4890 0001388 103.3683 256.7655 14.30817321 68108"
      },
      "geometry": {
        "type": "Point",
        "coordinates": [
          -120.9836434283499,
          -56.31264459734235
        ]
      }
    },
    {
      "type": "Feature",
      "properties": {
        "norad_id": 61735,
        "name": "IONOSFERA-M 1",
        "group": "resource",
        "lat": 55.41110535626273,
        "lon": 62.43033170223588,
        "alt_km": 810.987943920878,
        "timestamp": "2025-12-25T19:00:39.006184+00:00",
        "meta_object_name": "IONOSFERA-M 1",
        "meta_object_id": "2024-199A",
        "meta_epoch": "2025-12-25T06:37:01.656768",
        "meta_mean_motion": 14.22716746,
        "meta_eccentricity": 3.395e-05,
        "meta_inclination": 98.7403,
        "meta_ra_of_asc_node": 229.0272,
        "meta_arg_of_pericenter": 5.1854,
        "meta_mean_anomaly": 354.9328,
        "meta_ephemeris_type": 0,
        "meta_classification_type": "U",
        "meta_norad_cat_id": 61735,
        "meta_element_set_no": 999,
        "meta_rev_at_epoch": 10297,
        "meta_bstar": 4.7093143e-05,
        "meta_mean_motion_dot": 6.1e-07,
        "meta_mean_motion_ddot": 0,
        "tle_line1": "1 61735U 24199A   25359.27571362  .00000061  00000+0  47093-4 0  9997",
        "tle_line2": "2 61735  98.7403 229.0272 0000339   5.1854 354.9328 14.22716746102970"
      },
      "geometry": {
        "type": "Point",
        "coordinates": [
          62.43033170223588,
          55.41110535626273
        ]
      }
    },
    {
      "type": "Feature",
      "properties": {
        "norad_id": 61736,
        "name": "IONOSFERA-M 2",
        "group": "resource",
        "lat": -52.88570469753672,
        "lon": -118.81912226397209,
        "alt_km": 824.2306183963437,
        "timestamp": "2025-12-25T19:00:39.006194+00:00",
        "meta_object_name": "IONOSFERA-M 2",
        "meta_object_id": "2024-199B",
        "meta_epoch": "2025-12-25T07:26:53.553984",
        "meta_mean_motion": 14.22718916,
        "meta_eccentricity": 0.00018602,
        "meta_inclination": 98.7394,
        "meta_ra_of_asc_node": 228.9739,
        "meta_arg_of_pericenter": 94.2267,
        "meta_mean_anomaly": 265.9124,
        "meta_ephemeris_type": 0,
        "meta_classification_type": "U",
        "meta_norad_cat_id": 61736,
        "meta_element_set_no": 999,
        "meta_rev_at_epoch": 10610,
        "meta_bstar": 4.7418542e-05,
        "meta_mean_motion_dot": 6.2e-07,
        "meta_mean_motion_ddot": 0,
        "tle_line1": "1 61736U 24199B   25359.31034206  .00000062  00000+0  47419-4 0  9997",
        "tle_line2": "2 61736  98.7394 228.9739 0001860  94.2267 265.9124 14.22718916106108"
      },
      "geometry": {
        "type": "Point",
        "coordinates": [
          -118.81912226397209,
          -52.88570469753672
        ]
      }
    },
    {
      "type": "Feature",
      "properties": {
        "norad_id": 63772,
        "name": "BIOMASS",
        "group": "resource",
        "lat": 77.86566342736032,
        "lon": 143.32432027775923,
        "alt_km": 660.8998055527609,
        "timestamp": "2025-12-25T19:00:39.006205+00:00",
        "meta_object_name": "BIOMASS",
        "meta_object_id": "2025-090A",
        "meta_epoch": "2025-12-25T00:38:36.523104",
        "meta_mean_motion": 14.67537569,
        "meta_eccentricity": 0.00010454,
        "meta_inclination": 98.0693,
        "meta_ra_of_asc_node": 183.8574,
        "meta_arg_of_pericenter": 84.1343,
        "meta_mean_anomaly": 275.998,
        "meta_ephemeris_type": 0,
        "meta_classification_type": "U",
        "meta_norad_cat_id": 63772,
        "meta_element_set_no": 999,
        "meta_rev_at_epoch": 3514,
        "meta_bstar": 0.00023519199,
        "meta_mean_motion_dot": 1.286e-05,
        "meta_mean_motion_ddot": 0,
        "tle_line1": "1 63772U 25090A   25359.02681161  .00001286  00000+0  23519-3 0  9999",
        "tle_line2": "2 63772  98.0693 183.8574 0001045  84.1343 275.9980 14.67537569 35147"
      },
      "geometry": {
        "type": "Point",
        "coordinates": [
          143.32432027775923,
          77.86566342736032
        ]
      }
    }
  ]
}